ATLAS CENTAUR 2         
1 00694U 63047A   26066.07295424  .00001683  00000+0  19599-3 0  9995
2 00694  30.3513 210.2666 0547764  57.2248 307.9929 14.12056892131259
THOR AGENA D R/B        
1 00733U 64002A   26066.01031687  .00000259  00000+0  10980-3 0  9997
2 00733  99.1228  79.2018 0031916 266.1544  93.5989 14.34018082237917
SL-3 R/B                
1 00877U 64053B   26066.22827374  .00000479  00000+0  11680-3 0  9993
2 00877  65.0789 338.4532 0079665 293.0035  66.2676 14.61366028266433
SL-8 R/B                
1 02802U 67045B   26066.22215784  .00000634  00000+0  18281-3 0  9990
2 02802  74.0140 352.6968 0064103 359.5651   0.5439 14.45620367 88664
SL-8 R/B                
1 03230U 68040B   26066.11418890  .00004025  00000+0  29843-3 0  9997
2 03230  74.0325 318.9571 0023937 143.7586 216.5230 15.03235748 89625
OAO 2                   
1 03597U 68110A   26066.29952615  .00000409  00000+0  11524-3 0  9997
2 03597  34.9930 278.5690 0005587 186.4532 173.6088 14.47306630 18753
ISIS 1                  
1 03669U 69009A   26066.24174804  .00000235  00000+0  15070-3 0  9993
2 03669  88.4545 155.5756 1707800  94.0996 285.6100 11.30413425348252
SERT 2                  
1 04327U 70009A   26066.28810428  .00000021  00000+0  85888-4 0  9998
2 04327  99.2757   9.5131 0004952 161.3987 355.5475 13.58729580779567
SL-3 R/B                
1 05118U 71028B   26066.28451001  .00055494  00000+0  65773-3 0  9991
2 05118  81.2351  54.9991 0013609 295.9810  64.0040 15.60888202988297
ASTEX 1                 
1 05560U 71089A   26066.27026978  .00000676  00000+0  17182-3 0  9992
2 05560  92.7125 150.9774 0017865  93.0175 267.3075 14.50767063861957
SL-8 R/B                
1 05730U 71119B   26066.29172663  .00017392  00000+0  90326-3 0  9994
2 05730  73.8877 180.2002 0549252 147.3402 216.3017 14.37786139655148
OAO 3 (COPERNICUS)      
1 06153U 72065A   26066.08516010  .00000467  00000+0  10015-3 0  9992
2 06153  35.0062 312.1554 0006199 144.9862   1.3901 14.59995466845811
