CCSDS_OMM_VERS = 2.0
CREATION_DATE  = 
ORIGINATOR     = 

OBJECT_NAME    = ATLAS CENTAUR 2
OBJECT_ID      = 1963-047A
CENTER_NAME    = EARTH
REF_FRAME      = TEME
TIME_SYSTEM    = UTC
MEAN_ELEMENT_THEORY = SGP/SGP4

EPOCH          = 2026-03-07T01:45:03.246336
MEAN_MOTION    = 14.12056892
ECCENTRICITY   = .05477648
INCLINATION    = 30.3513
RA_OF_ASC_NODE = 210.2666
ARG_OF_PERICENTER = 57.2248
MEAN_ANOMALY   = 307.9929

EPHEMERIS_TYPE = 0
CLASSIFICATION_TYPE = U
NORAD_CAT_ID   = 694
ELEMENT_SET_NO = 999
REV_AT_EPOCH   = 13125
BSTAR          = .19599003E-3
MEAN_MOTION_DOT = .1683E-4
MEAN_MOTION_DDOT = 0

CCSDS_OMM_VERS = 2.0
CREATION_DATE  = 
ORIGINATOR     = 

OBJECT_NAME    = THOR AGENA D R/B
OBJECT_ID      = 1964-002A
CENTER_NAME    = EARTH
REF_FRAME      = TEME
TIME_SYSTEM    = UTC
MEAN_ELEMENT_THEORY = SGP/SGP4

EPOCH          = 2026-03-07T00:14:51.377568
MEAN_MOTION    = 14.34018082
ECCENTRICITY   = .00319169
INCLINATION    = 99.1228
RA_OF_ASC_NODE = 79.2018
ARG_OF_PERICENTER = 266.1544
MEAN_ANOMALY   = 93.5989

EPHEMERIS_TYPE = 0
CLASSIFICATION_TYPE = U
NORAD_CAT_ID   = 733
ELEMENT_SET_NO = 999
REV_AT_EPOCH   = 23791
BSTAR          = .10980125E-3
MEAN_MOTION_DOT = .259E-5
MEAN_MOTION_DDOT = 0

CCSDS_OMM_VERS = 2.0
CREATION_DATE  = 
ORIGINATOR     = 

OBJECT_NAME    = SL-3 R/B
OBJECT_ID      = 1964-053B
CENTER_NAME    = EARTH
REF_FRAME      = TEME
TIME_SYSTEM    = UTC
MEAN_ELEMENT_THEORY = SGP/SGP4

EPOCH          = 2026-03-07T05:28:42.851136
MEAN_MOTION    = 14.61366028
ECCENTRICITY   = .00796659
INCLINATION    = 65.0789
RA_OF_ASC_NODE = 338.4532
ARG_OF_PERICENTER = 293.0035
MEAN_ANOMALY   = 66.2676

EPHEMERIS_TYPE = 0
CLASSIFICATION_TYPE = U
NORAD_CAT_ID   = 877
ELEMENT_SET_NO = 999
REV_AT_EPOCH   = 26643
BSTAR          = .11679521E-3
MEAN_MOTION_DOT = .479E-5
MEAN_MOTION_DDOT = 0

CCSDS_OMM_VERS = 2.0
CREATION_DATE  = 
ORIGINATOR     = 

OBJECT_NAME    = SL-8 R/B
OBJECT_ID      = 1967-045B
CENTER_NAME    = EARTH
REF_FRAME      = TEME
TIME_SYSTEM    = UTC
MEAN_ELEMENT_THEORY = SGP/SGP4

EPOCH          = 2026-03-07T05:19:54.437376
MEAN_MOTION    = 14.45620367
ECCENTRICITY   = .00641032
INCLINATION    = 74.0140
RA_OF_ASC_NODE = 352.6968
ARG_OF_PERICENTER = 359.5651
MEAN_ANOMALY   = 0.5439

EPHEMERIS_TYPE = 0
CLASSIFICATION_TYPE = U
NORAD_CAT_ID   = 2802
ELEMENT_SET_NO = 999
REV_AT_EPOCH   = 8866
BSTAR          = .18280885E-3
MEAN_MOTION_DOT = .634E-5
MEAN_MOTION_DDOT = 0

CCSDS_OMM_VERS = 2.0
CREATION_DATE  = 
ORIGINATOR     = 

OBJECT_NAME    = SL-8 R/B
OBJECT_ID      = 1968-040B
CENTER_NAME    = EARTH
REF_FRAME      = TEME
TIME_SYSTEM    = UTC
MEAN_ELEMENT_THEORY = SGP/SGP4

EPOCH          = 2026-03-07T02:44:25.920960
MEAN_MOTION    = 15.03235748
ECCENTRICITY   = .00239375
INCLINATION    = 74.0325
RA_OF_ASC_NODE = 318.9571
ARG_OF_PERICENTER = 143.7586
MEAN_ANOMALY   = 216.5230

EPHEMERIS_TYPE = 0
CLASSIFICATION_TYPE = U
NORAD_CAT_ID   = 3230
ELEMENT_SET_NO = 999
REV_AT_EPOCH   = 8962
BSTAR          = .29843148E-3
MEAN_MOTION_DOT = .4025E-4
MEAN_MOTION_DDOT = 0

CCSDS_OMM_VERS = 2.0
CREATION_DATE  = 
ORIGINATOR     = 

OBJECT_NAME    = OAO 2
OBJECT_ID      = 1968-110A
CENTER_NAME    = EARTH
REF_FRAME      = TEME
TIME_SYSTEM    = UTC
MEAN_ELEMENT_THEORY = SGP/SGP4

EPOCH          = 2026-03-07T07:11:19.059360
MEAN_MOTION    = 14.47306630
ECCENTRICITY   = .00055879
INCLINATION    = 34.9930
RA_OF_ASC_NODE = 278.5690
ARG_OF_PERICENTER = 186.4532
MEAN_ANOMALY   = 173.6088

EPHEMERIS_TYPE = 0
CLASSIFICATION_TYPE = U
NORAD_CAT_ID   = 3597
ELEMENT_SET_NO = 999
REV_AT_EPOCH   = 1875
BSTAR          = .11524046E-3
MEAN_MOTION_DOT = .409E-5
MEAN_MOTION_DDOT = 0

CCSDS_OMM_VERS = 2.0
CREATION_DATE  = 
ORIGINATOR     = 

OBJECT_NAME    = ISIS 1
OBJECT_ID      = 1969-009A
CENTER_NAME    = EARTH
REF_FRAME      = TEME
TIME_SYSTEM    = UTC
MEAN_ELEMENT_THEORY = SGP/SGP4

EPOCH          = 2026-03-07T05:48:07.030656
MEAN_MOTION    = 11.30413425
ECCENTRICITY   = .17078009
INCLINATION    = 88.4545
RA_OF_ASC_NODE = 155.5756
ARG_OF_PERICENTER = 94.0996
MEAN_ANOMALY   = 285.6100

EPHEMERIS_TYPE = 0
CLASSIFICATION_TYPE = U
NORAD_CAT_ID   = 3669
ELEMENT_SET_NO = 999
REV_AT_EPOCH   = 34825
BSTAR          = .15069785E-3
MEAN_MOTION_DOT = .235E-5
MEAN_MOTION_DDOT = 0

CCSDS_OMM_VERS = 2.0
CREATION_DATE  = 
ORIGINATOR     = 

OBJECT_NAME    = SERT 2
OBJECT_ID      = 1970-009A
CENTER_NAME    = EARTH
REF_FRAME      = TEME
TIME_SYSTEM    = UTC
MEAN_ELEMENT_THEORY = SGP/SGP4

EPOCH          = 2026-03-07T06:54:52.209792
MEAN_MOTION    = 13.58729580
ECCENTRICITY   = .00049523
INCLINATION    = 99.2757
RA_OF_ASC_NODE = 9.5131
ARG_OF_PERICENTER = 161.3987
MEAN_ANOMALY   = 355.5475

EPHEMERIS_TYPE = 0
CLASSIFICATION_TYPE = U
NORAD_CAT_ID   = 4327
ELEMENT_SET_NO = 999
REV_AT_EPOCH   = 77956
BSTAR          = .85887731E-4
MEAN_MOTION_DOT = .21E-6
MEAN_MOTION_DDOT = 0

CCSDS_OMM_VERS = 2.0
CREATION_DATE  = 
ORIGINATOR     = 

OBJECT_NAME    = SL-3 R/B
OBJECT_ID      = 1971-028B
CENTER_NAME    = EARTH
REF_FRAME      = TEME
TIME_SYSTEM    = UTC
MEAN_ELEMENT_THEORY = SGP/SGP4

EPOCH          = 2026-03-07T06:49:41.664864
MEAN_MOTION    = 15.60888202
ECCENTRICITY   = .00136091
INCLINATION    = 81.2351
RA_OF_ASC_NODE = 54.9991
ARG_OF_PERICENTER = 295.9810
MEAN_ANOMALY   = 64.0040

EPHEMERIS_TYPE = 0
CLASSIFICATION_TYPE = U
NORAD_CAT_ID   = 5118
ELEMENT_SET_NO = 999
REV_AT_EPOCH   = 98829
BSTAR          = .65772536E-3
MEAN_MOTION_DOT = .55494E-3
MEAN_MOTION_DDOT = 0

CCSDS_OMM_VERS = 2.0
CREATION_DATE  = 
ORIGINATOR     = 

OBJECT_NAME    = ASTEX 1
OBJECT_ID      = 1971-089A
CENTER_NAME    = EARTH
REF_FRAME      = TEME
TIME_SYSTEM    = UTC
MEAN_ELEMENT_THEORY = SGP/SGP4

EPOCH          = 2026-03-07T06:29:11.308992
MEAN_MOTION    = 14.50767063
ECCENTRICITY   = .00178658
INCLINATION    = 92.7125
RA_OF_ASC_NODE = 150.9774
ARG_OF_PERICENTER = 93.0175
MEAN_ANOMALY   = 267.3075

EPHEMERIS_TYPE = 0
CLASSIFICATION_TYPE = U
NORAD_CAT_ID   = 5560
ELEMENT_SET_NO = 999
REV_AT_EPOCH   = 86195
BSTAR          = .1718154E-3
MEAN_MOTION_DOT = .676E-5
MEAN_MOTION_DDOT = 0

CCSDS_OMM_VERS = 2.0
CREATION_DATE  = 
ORIGINATOR     = 

OBJECT_NAME    = SL-8 R/B
OBJECT_ID      = 1971-119B
CENTER_NAME    = EARTH
REF_FRAME      = TEME
TIME_SYSTEM    = UTC
MEAN_ELEMENT_THEORY = SGP/SGP4

EPOCH          = 2026-03-07T07:00:05.180832
MEAN_MOTION    = 14.37786139
ECCENTRICITY   = .05492523
INCLINATION    = 73.8877
RA_OF_ASC_NODE = 180.2002
ARG_OF_PERICENTER = 147.3402
MEAN_ANOMALY   = 216.3017

EPHEMERIS_TYPE = 0
CLASSIFICATION_TYPE = U
NORAD_CAT_ID   = 5730
ELEMENT_SET_NO = 999
REV_AT_EPOCH   = 65514
BSTAR          = .90325678E-3
MEAN_MOTION_DOT = .17392E-3
MEAN_MOTION_DDOT = 0

CCSDS_OMM_VERS = 2.0
CREATION_DATE  = 
ORIGINATOR     = 

OBJECT_NAME    = OAO 3 (COPERNICUS)
OBJECT_ID      = 1972-065A
CENTER_NAME    = EARTH
REF_FRAME      = TEME
TIME_SYSTEM    = UTC
MEAN_ELEMENT_THEORY = SGP/SGP4

EPOCH          = 2026-03-07T02:02:37.832640
MEAN_MOTION    = 14.59995466
ECCENTRICITY   = .00061992
INCLINATION    = 35.0062
RA_OF_ASC_NODE = 312.1554
ARG_OF_PERICENTER = 144.9862
MEAN_ANOMALY   = 1.3901

EPHEMERIS_TYPE = 0
CLASSIFICATION_TYPE = U
NORAD_CAT_ID   = 6153
ELEMENT_SET_NO = 999
REV_AT_EPOCH   = 84581
BSTAR          = .10015128E-3
MEAN_MOTION_DOT = .467E-5
MEAN_MOTION_DDOT = 0

